{"fetched_at":"2026-07-19T07:04:50.778Z","source":"https://celestrak.org/NORAD/elements/gp.php?GROUP=planet&FORMAT=JSON","constellation":"superdove","records":[{"OBJECT_NAME":"FLOCK 4G-23","OBJECT_ID":"2025-009AQ","EPOCH":"2026-07-18T17:58:03.040320","CLASSIFICATION_TYPE":"U","MEAN_MOTION":15.34937302,"ECCENTRICITY":0.0003516,"INCLINATION":97.3917,"RA_OF_ASC_NODE":281.4462,"ARG_OF_PERICENTER":164.4738,"MEAN_ANOMALY":195.6614,"EPHEMERIS_TYPE":0,"NORAD_CAT_ID":62647,"ELEMENT_SET_NO":999,"REV_AT_EPOCH":8376,"BSTAR":0.00064923,"MEAN_MOTION_DOT":0.0002196,"MEAN_MOTION_DDOT":0},{"OBJECT_NAME":"FLOCK 4G-34","OBJECT_ID":"2025-009AT","EPOCH":"2026-07-18T17:22:11.485056","CLASSIFICATION_TYPE":"U","MEAN_MOTION":15.29815039,"ECCENTRICITY":0.0002696,"INCLINATION":97.3955,"RA_OF_ASC_NODE":281.1565,"ARG_OF_PERICENTER":154.6391,"MEAN_ANOMALY":205.4982,"EPHEMERIS_TYPE":0,"NORAD_CAT_ID":62650,"ELEMENT_SET_NO":999,"REV_AT_EPOCH":8373,"BSTAR":0.00018668,"MEAN_MOTION_DOT":0.00005314,"MEAN_MOTION_DDOT":0},{"OBJECT_NAME":"FLOCK 4G-21","OBJECT_ID":"2025-009AU","EPOCH":"2026-07-18T18:23:17.424960","CLASSIFICATION_TYPE":"U","MEAN_MOTION":15.33018816,"ECCENTRICITY":0.0003557,"INCLINATION":97.3982,"RA_OF_ASC_NODE":282.2203,"ARG_OF_PERICENTER":180.0563,"MEAN_ANOMALY":180.068,"EPHEMERIS_TYPE":0,"NORAD_CAT_ID":62651,"ELEMENT_SET_NO":999,"REV_AT_EPOCH":8379,"BSTAR":0.00062212,"MEAN_MOTION_DOT":0.00019797,"MEAN_MOTION_DDOT":0},{"OBJECT_NAME":"FLOCK 4G-31","OBJECT_ID":"2025-009AV","EPOCH":"2026-07-18T18:05:53.756160","CLASSIFICATION_TYPE":"U","MEAN_MOTION":15.29620257,"ECCENTRICITY":0.0002241,"INCLINATION":97.3959,"RA_OF_ASC_NODE":281.1578,"ARG_OF_PERICENTER":152.3925,"MEAN_ANOMALY":207.7434,"EPHEMERIS_TYPE":0,"NORAD_CAT_ID":62652,"ELEMENT_SET_NO":999,"REV_AT_EPOCH":8373,"BSTAR":0.00018453,"MEAN_MOTION_DOT":0.0000522,"MEAN_MOTION_DDOT":0},{"OBJECT_NAME":"FLOCK 4G-4","OBJECT_ID":"2025-009BC","EPOCH":"2026-07-18T18:51:32.567040","CLASSIFICATION_TYPE":"U","MEAN_MOTION":15.32295071,"ECCENTRICITY":0.0004998,"INCLINATION":97.3935,"RA_OF_ASC_NODE":281.0141,"ARG_OF_PERICENTER":181.3603,"MEAN_ANOMALY":178.7626,"EPHEMERIS_TYPE":0,"NORAD_CAT_ID":62659,"ELEMENT_SET_NO":999,"REV_AT_EPOCH":14134,"BSTAR":0.00065958,"MEAN_MOTION_DOT":0.00020528,"MEAN_MOTION_DDOT":0},{"OBJECT_NAME":"FLOCK 4G-6","OBJECT_ID":"2025-009BD","EPOCH":"2026-07-18T17:48:58.989024","CLASSIFICATION_TYPE":"U","MEAN_MOTION":15.30012466,"ECCENTRICITY":0.0003264,"INCLINATION":97.3933,"RA_OF_ASC_NODE":280.9992,"ARG_OF_PERICENTER":188.0572,"MEAN_ANOMALY":172.0617,"EPHEMERIS_TYPE":0,"NORAD_CAT_ID":62660,"ELEMENT_SET_NO":999,"REV_AT_EPOCH":14132,"BSTAR":0.00016372,"MEAN_MOTION_DOT":0.0000468,"MEAN_MOTION_DDOT":0},{"OBJECT_NAME":"FLOCK 4G-2","OBJECT_ID":"2025-009BE","EPOCH":"2026-07-18T19:12:44.494272","CLASSIFICATION_TYPE":"U","MEAN_MOTION":15.30370236,"ECCENTRICITY":0.0004121,"INCLINATION":97.4001,"RA_OF_ASC_NODE":281.7041,"ARG_OF_PERICENTER":188.5124,"MEAN_ANOMALY":171.6047,"EPHEMERIS_TYPE":0,"NORAD_CAT_ID":62661,"ELEMENT_SET_NO":999,"REV_AT_EPOCH":14136,"BSTAR":0.00019284,"MEAN_MOTION_DOT":0.00005588,"MEAN_MOTION_DDOT":0},{"OBJECT_NAME":"FLOCK 4G-5","OBJECT_ID":"2025-009BG","EPOCH":"2026-07-18T12:46:59.120544","CLASSIFICATION_TYPE":"U","MEAN_MOTION":15.30940117,"ECCENTRICITY":0.00038308,"INCLINATION":97.402,"RA_OF_ASC_NODE":281.8408,"ARG_OF_PERICENTER":171.1436,"MEAN_ANOMALY":188.9873,"EPHEMERIS_TYPE":0,"NORAD_CAT_ID":62663,"ELEMENT_SET_NO":999,"REV_AT_EPOCH":8373,"BSTAR":0.00016418253,"MEAN_MOTION_DOT":0.00004831,"MEAN_MOTION_DDOT":0},{"OBJECT_NAME":"FLOCK 4G-1","OBJECT_ID":"2025-009BK","EPOCH":"2026-07-18T18:51:27.554112","CLASSIFICATION_TYPE":"U","MEAN_MOTION":15.30229674,"ECCENTRICITY":0.0004388,"INCLINATION":97.4014,"RA_OF_ASC_NODE":281.6682,"ARG_OF_PERICENTER":186.0061,"MEAN_ANOMALY":174.1128,"EPHEMERIS_TYPE":0,"NORAD_CAT_ID":62666,"ELEMENT_SET_NO":999,"REV_AT_EPOCH":8374,"BSTAR":0.00019776,"MEAN_MOTION_DOT":0.00005708,"MEAN_MOTION_DDOT":0},{"OBJECT_NAME":"FLOCK 4G-14","OBJECT_ID":"2025-009BL","EPOCH":"2026-07-18T18:03:35.168832","CLASSIFICATION_TYPE":"U","MEAN_MOTION":15.29777146,"ECCENTRICITY":0.0004583,"INCLINATION":97.4016,"RA_OF_ASC_NODE":281.4294,"ARG_OF_PERICENTER":181.7145,"MEAN_ANOMALY":178.4081,"EPHEMERIS_TYPE":0,"NORAD_CAT_ID":62667,"ELEMENT_SET_NO":999,"REV_AT_EPOCH":8372,"BSTAR":0.00019268,"MEAN_MOTION_DOT":0.00005482,"MEAN_MOTION_DDOT":0},{"OBJECT_NAME":"FLOCK 4G-10","OBJECT_ID":"2025-009BP","EPOCH":"2026-07-18T18:18:57.613248","CLASSIFICATION_TYPE":"U","MEAN_MOTION":15.29879436,"ECCENTRICITY":0.0004038,"INCLINATION":97.3913,"RA_OF_ASC_NODE":280.7338,"ARG_OF_PERICENTER":198.7094,"MEAN_ANOMALY":161.3998,"EPHEMERIS_TYPE":0,"NORAD_CAT_ID":62670,"ELEMENT_SET_NO":999,"REV_AT_EPOCH":14136,"BSTAR":0.00019969,"MEAN_MOTION_DOT":0.00005702,"MEAN_MOTION_DDOT":0},{"OBJECT_NAME":"FLOCK 4G-36","OBJECT_ID":"2025-009BU","EPOCH":"2026-07-18T18:11:09.835008","CLASSIFICATION_TYPE":"U","MEAN_MOTION":15.29854174,"ECCENTRICITY":0.0004699,"INCLINATION":97.4006,"RA_OF_ASC_NODE":281.3562,"ARG_OF_PERICENTER":187.4242,"MEAN_ANOMALY":172.6929,"EPHEMERIS_TYPE":0,"NORAD_CAT_ID":62675,"ELEMENT_SET_NO":999,"REV_AT_EPOCH":8372,"BSTAR":0.00019516,"MEAN_MOTION_DOT":0.00005567,"MEAN_MOTION_DDOT":0},{"OBJECT_NAME":"FLOCK 4G-15","OBJECT_ID":"2025-009BX","EPOCH":"2026-07-18T18:20:50.779104","CLASSIFICATION_TYPE":"U","MEAN_MOTION":15.2994384,"ECCENTRICITY":0.0004948,"INCLINATION":97.4007,"RA_OF_ASC_NODE":281.5062,"ARG_OF_PERICENTER":184.1813,"MEAN_ANOMALY":175.9387,"EPHEMERIS_TYPE":0,"NORAD_CAT_ID":62678,"ELEMENT_SET_NO":999,"REV_AT_EPOCH":14137,"BSTAR":0.00019488,"MEAN_MOTION_DOT":0.00005574,"MEAN_MOTION_DDOT":0},{"OBJECT_NAME":"FLOCK 4G-30","OBJECT_ID":"2025-009BY","EPOCH":"2026-07-18T18:19:27.698592","CLASSIFICATION_TYPE":"U","MEAN_MOTION":15.34113372,"ECCENTRICITY":0.0004702,"INCLINATION":97.3907,"RA_OF_ASC_NODE":281.045,"ARG_OF_PERICENTER":185.6421,"MEAN_ANOMALY":174.4769,"EPHEMERIS_TYPE":0,"NORAD_CAT_ID":62679,"ELEMENT_SET_NO":999,"REV_AT_EPOCH":14138,"BSTAR":0.00065843,"MEAN_MOTION_DOT":0.00021701,"MEAN_MOTION_DDOT":0},{"OBJECT_NAME":"FLOCK 4G-18","OBJECT_ID":"2025-009BZ","EPOCH":"2026-07-18T18:46:03.192096","CLASSIFICATION_TYPE":"U","MEAN_MOTION":15.32355635,"ECCENTRICITY":0.00065,"INCLINATION":97.3998,"RA_OF_ASC_NODE":281.4536,"ARG_OF_PERICENTER":198.388,"MEAN_ANOMALY":161.7127,"EPHEMERIS_TYPE":0,"NORAD_CAT_ID":62680,"ELEMENT_SET_NO":999,"REV_AT_EPOCH":14137,"BSTAR":0.00067031,"MEAN_MOTION_DOT":0.00020909,"MEAN_MOTION_DDOT":0},{"OBJECT_NAME":"FLOCK 4G-17","OBJECT_ID":"2025-009CA","EPOCH":"2026-07-18T18:58:14.022912","CLASSIFICATION_TYPE":"U","MEAN_MOTION":15.30125922,"ECCENTRICITY":0.0004443,"INCLINATION":97.3912,"RA_OF_ASC_NODE":280.9993,"ARG_OF_PERICENTER":199.1137,"MEAN_ANOMALY":160.9938,"EPHEMERIS_TYPE":0,"NORAD_CAT_ID":62681,"ELEMENT_SET_NO":999,"REV_AT_EPOCH":14138,"BSTAR":0.00019727,"MEAN_MOTION_DOT":0.00005675,"MEAN_MOTION_DDOT":0}]}
