FLOCK 4G-23             
1 62647U 25009AQ  26199.74864630  .00021960  00000+0  64923-3 0  9990
2 62647  97.3917 281.4462 0003516 164.4738 195.6614 15.34937302 83761
FLOCK 4G-34             
1 62650U 25009AT  26199.72374404  .00005314  00000+0  18668-3 0  9997
2 62650  97.3955 281.1565 0002696 154.6391 205.4982 15.29815039 83733
FLOCK 4G-21             
1 62651U 25009AU  26199.76617390  .00019797  00000+0  62212-3 0  9990
2 62651  97.3982 282.2203 0003557 180.0563 180.0680 15.33018816 83798
FLOCK 4G-31             
1 62652U 25009AV  26199.75409440  .00005220  00000+0  18453-3 0  9999
2 62652  97.3959 281.1578 0002241 152.3925 207.7434 15.29620257 83730
FLOCK 4G-4              
1 62659U 25009BC  26199.78579360  .00020528  00000+0  65958-3 0  9998
2 62659  97.3935 281.0141 0004998 181.3603 178.7626 15.32295071141340
FLOCK 4G-6              
1 62660U 25009BD  26199.74234941  .00004680  00000+0  16372-3 0  9996
2 62660  97.3933 280.9992 0003264 188.0572 172.0617 15.30012466141324
FLOCK 4G-2              
1 62661U 25009BE  26199.80051498  .00005588  00000+0  19284-3 0  9991
2 62661  97.4001 281.7041 0004121 188.5124 171.6047 15.30370236141365
FLOCK 4G-5              
1 62663U 25009BG  26199.53262871  .00004831  00000+0  16418-3 0  9998
2 62663  97.4020 281.8408 0003830 171.1436 188.9873 15.30940117 83731
FLOCK 4G-1              
1 62666U 25009BK  26199.78573558  .00005708  00000+0  19776-3 0  9999
2 62666  97.4014 281.6682 0004388 186.0061 174.1128 15.30229674 83746
FLOCK 4G-14             
1 62667U 25009BL  26199.75249038  .00005482  00000+0  19268-3 0  9995
2 62667  97.4016 281.4294 0004583 181.7145 178.4081 15.29777146 83721
FLOCK 4G-10             
1 62670U 25009BP  26199.76316682  .00005702  00000+0  19969-3 0  9993
2 62670  97.3913 280.7338 0004038 198.7094 161.3998 15.29879436141365
FLOCK 4G-36             
1 62675U 25009BU  26199.75775272  .00005567  00000+0  19516-3 0  9998
2 62675  97.4006 281.3562 0004699 187.4242 172.6929 15.29854174 83729
FLOCK 4G-15             
1 62678U 25009BX  26199.76447661  .00005574  00000+0  19488-3 0  9996
2 62678  97.4007 281.5062 0004948 184.1813 175.9387 15.29943840141374
FLOCK 4G-30             
1 62679U 25009BY  26199.76351503  .00021701  00000+0  65843-3 0  9992
2 62679  97.3907 281.0450 0004702 185.6421 174.4769 15.34113372141382
FLOCK 4G-18             
1 62680U 25009BZ  26199.78198139  .00020909  00000+0  67031-3 0  9990
2 62680  97.3998 281.4536 0006500 198.3880 161.7127 15.32355635141375
FLOCK 4G-17             
1 62681U 25009CA  26199.79044008  .00005675  00000+0  19727-3 0  9999
2 62681  97.3912 280.9993 0004443 199.1137 160.9938 15.30125922141385
